{
  "type": "FeatureCollection",
  "features": [
    {
      "type": "Feature",
      "properties": {
        "norad_id": 33924,
        "name": "COSMOS 2251 DEB",
        "group": "cosmos-2251-debris",
        "lat": -46.680036363261806,
        "lon": -113.58621883451106,
        "alt_km": 782.7293338870577,
        "timestamp": "2025-12-16T10:53:45.864134+00:00",
        "meta_object_name": "COSMOS 2251 DEB",
        "meta_object_id": "1993-036ED",
        "meta_epoch": "2025-12-15T22:40:38.835552",
        "meta_mean_motion": 13.50230109,
        "meta_eccentricity": 0.04039573,
        "meta_inclination": 73.9136,
        "meta_ra_of_asc_node": 265.0494,
        "meta_arg_of_pericenter": 299.9409,
        "meta_mean_anomaly": 56.2156,
        "meta_ephemeris_type": 0,
        "meta_classification_type": "U",
        "meta_norad_cat_id": 33924,
        "meta_element_set_no": 999,
        "meta_rev_at_epoch": 82782,
        "meta_bstar": 0.00065874634,
        "meta_mean_motion_dot": 6.74e-06,
        "meta_mean_motion_ddot": 0,
        "tle_line1": "1 33924U 93036ED  25349.94489393  .00000674  00000+0  65875-3 0  9994",
        "tle_line2": "2 33924  73.9136 265.0494 0403957 299.9409  56.2156 13.50230109827828"
      },
      "geometry": {
        "type": "Point",
        "coordinates": [
          -113.58621883451106,
          -46.680036363261806
        ]
      }
    },
    {
      "type": "Feature",
      "properties": {
        "norad_id": 33928,
        "name": "COSMOS 2251 DEB",
        "group": "cosmos-2251-debris",
        "lat": 72.19527061236015,
        "lon": 109.44353263831937,
        "alt_km": 736.6983376972685,
        "timestamp": "2025-12-16T10:53:45.864144+00:00",
        "meta_object_name": "COSMOS 2251 DEB",
        "meta_object_id": "1993-036EH",
        "meta_epoch": "2025-12-15T12:57:18.604224",
        "meta_mean_motion": 14.4740953,
        "meta_eccentricity": 0.00616044,
        "meta_inclination": 73.9259,
        "meta_ra_of_asc_node": 47.2936,
        "meta_arg_of_pericenter": 340.8097,
        "meta_mean_anomaly": 19.074,
        "meta_ephemeris_type": 0,
        "meta_classification_type": "U",
        "meta_norad_cat_id": 33928,
        "meta_element_set_no": 999,
        "meta_rev_at_epoch": 88685,
        "meta_bstar": 0.00023272148,
        "meta_mean_motion_dot": 8.45e-06,
        "meta_mean_motion_ddot": 0,
        "tle_line1": "1 33928U 93036EH  25349.53979866  .00000845  00000+0  23272-3 0  9997",
        "tle_line2": "2 33928  73.9259  47.2936 0061604 340.8097  19.0740 14.47409530886854"
      },
      "geometry": {
        "type": "Point",
        "coordinates": [
          109.44353263831937,
          72.19527061236015
        ]
      }
    },
    {
      "type": "Feature",
      "properties": {
        "norad_id": 33932,
        "name": "COSMOS 2251 DEB",
        "group": "cosmos-2251-debris",
        "lat": 68.94163132061986,
        "lon": 81.03273241433378,
        "alt_km": 750.8203225776169,
        "timestamp": "2025-12-16T10:53:45.864155+00:00",
        "meta_object_name": "COSMOS 2251 DEB",
        "meta_object_id": "1993-036EM",
        "meta_epoch": "2025-12-15T22:44:10.974336",
        "meta_mean_motion": 14.38767536,
        "meta_eccentricity": 0.00354796,
        "meta_inclination": 74.0339,
        "meta_ra_of_asc_node": 310.0013,
        "meta_arg_of_pericenter": 25.4245,
        "meta_mean_anomaly": 334.8645,
        "meta_ephemeris_type": 0,
        "meta_classification_type": "U",
        "meta_norad_cat_id": 33932,
        "meta_element_set_no": 999,
        "meta_rev_at_epoch": 88044,
        "meta_bstar": 0.00046525501,
        "meta_mean_motion_dot": 1.414e-05,
        "meta_mean_motion_ddot": 0,
        "tle_line1": "1 33932U 93036EM  25349.94734924  .00001414  00000+0  46526-3 0  9991",
        "tle_line2": "2 33932  74.0339 310.0013 0035479  25.4245 334.8645 14.38767536880443"
      },
      "geometry": {
        "type": "Point",
        "coordinates": [
          81.03273241433378,
          68.94163132061986
        ]
      }
    },
    {
      "type": "Feature",
      "properties": {
        "norad_id": 33933,
        "name": "COSMOS 2251 DEB",
        "group": "cosmos-2251-debris",
        "lat": -57.668419411774245,
        "lon": -99.84649655476598,
        "alt_km": 837.5185085838348,
        "timestamp": "2025-12-16T10:53:45.864165+00:00",
        "meta_object_name": "COSMOS 2251 DEB",
        "meta_object_id": "1993-036EN",
        "meta_epoch": "2025-12-15T22:03:08.339328",
        "meta_mean_motion": 14.33493817,
        "meta_eccentricity": 0.00708269,
        "meta_inclination": 74.0894,
        "meta_ra_of_asc_node": 54.3426,
        "meta_arg_of_pericenter": 61.7969,
        "meta_mean_anomaly": 299.0311,
        "meta_ephemeris_type": 0,
        "meta_classification_type": "U",
        "meta_norad_cat_id": 33933,
        "meta_element_set_no": 999,
        "meta_rev_at_epoch": 87830,
        "meta_bstar": 0.00024887955,
        "meta_mean_motion_dot": 6.82e-06,
        "meta_mean_motion_ddot": 0,
        "tle_line1": "1 33933U 93036EN  25349.91884652  .00000682  00000+0  24888-3 0  9996",
        "tle_line2": "2 33933  74.0894  54.3426 0070826  61.7969 299.0311 14.33493817878304"
      },
      "geometry": {
        "type": "Point",
        "coordinates": [
          -99.84649655476598,
          -57.668419411774245
        ]
      }
    },
    {
      "type": "Feature",
      "properties": {
        "norad_id": 33934,
        "name": "COSMOS 2251 DEB",
        "group": "cosmos-2251-debris",
        "lat": -18.70745116627452,
        "lon": 87.93328373978395,
        "alt_km": 706.7309589625111,
        "timestamp": "2025-12-16T10:53:45.864175+00:00",
        "meta_object_name": "COSMOS 2251 DEB",
        "meta_object_id": "1993-036EP",
        "meta_epoch": "2025-12-15T13:35:38.655168",
        "meta_mean_motion": 14.5913635,
        "meta_eccentricity": 0.00155602,
        "meta_inclination": 74.0379,
        "meta_ra_of_asc_node": 95.1856,
        "meta_arg_of_pericenter": 219.03,
        "meta_mean_anomaly": 140.9743,
        "meta_ephemeris_type": 0,
        "meta_classification_type": "U",
        "meta_norad_cat_id": 33934,
        "meta_element_set_no": 999,
        "meta_rev_at_epoch": 88780,
        "meta_bstar": 0.0006621295,
        "meta_mean_motion_dot": 3.095e-05,
        "meta_mean_motion_ddot": 0,
        "tle_line1": "1 33934U 93036EP  25349.56641962  .00003095  00000+0  66213-3 0  9992",
        "tle_line2": "2 33934  74.0379  95.1856 0015560 219.0300 140.9743 14.59136350887806"
      },
      "geometry": {
        "type": "Point",
        "coordinates": [
          87.93328373978395,
          -18.70745116627452
        ]
      }
    },
    {
      "type": "Feature",
      "properties": {
        "norad_id": 33936,
        "name": "COSMOS 2251 DEB",
        "group": "cosmos-2251-debris",
        "lat": -68.72150598012374,
        "lon": -16.99270350895737,
        "alt_km": 702.1813817261445,
        "timestamp": "2025-12-16T10:53:45.864185+00:00",
        "meta_object_name": "COSMOS 2251 DEB",
        "meta_object_id": "1993-036ER",
        "meta_epoch": "2025-12-15T20:26:46.234464",
        "meta_mean_motion": 14.60292937,
        "meta_eccentricity": 0.00273273,
        "meta_inclination": 74.019,
        "meta_ra_of_asc_node": 31.5361,
        "meta_arg_of_pericenter": 186.3242,
        "meta_mean_anomaly": 173.7583,
        "meta_ephemeris_type": 0,
        "meta_classification_type": "U",
        "meta_norad_cat_id": 33936,
        "meta_element_set_no": 999,
        "meta_rev_at_epoch": 88935,
        "meta_bstar": 0.00046739073,
        "meta_mean_motion_dot": 2.239e-05,
        "meta_mean_motion_ddot": 0,
        "tle_line1": "1 33936U 93036ER  25349.85192401  .00002239  00000+0  46739-3 0  9995",
        "tle_line2": "2 33936  74.0190  31.5361 0027327 186.3242 173.7583 14.60292937889353"
      },
      "geometry": {
        "type": "Point",
        "coordinates": [
          -16.99270350895737,
          -68.72150598012374
        ]
      }
    },
    {
      "type": "Feature",
      "properties": {
        "norad_id": 33938,
        "name": "COSMOS 2251 DEB",
        "group": "cosmos-2251-debris",
        "lat": -40.56761426981191,
        "lon": -173.93561247215422,
        "alt_km": 732.521609805598,
        "timestamp": "2025-12-16T10:53:45.864196+00:00",
        "meta_object_name": "COSMOS 2251 DEB",
        "meta_object_id": "1993-036ET",
        "meta_epoch": "2025-12-15T22:21:44.513280",
        "meta_mean_motion": 14.46803741,
        "meta_eccentricity": 0.00168554,
        "meta_inclination": 74.0446,
        "meta_ra_of_asc_node": 201.2167,
        "meta_arg_of_pericenter": 283.0907,
        "meta_mean_anomaly": 195.3545,
        "meta_ephemeris_type": 0,
        "meta_classification_type": "U",
        "meta_norad_cat_id": 33938,
        "meta_element_set_no": 999,
        "meta_rev_at_epoch": 88446,
        "meta_bstar": 0.00033206483,
        "meta_mean_motion_dot": 1.178e-05,
        "meta_mean_motion_ddot": 0,
        "tle_line1": "1 33938U 93036ET  25349.93176520  .00001178  00000+0  33206-3 0  9996",
        "tle_line2": "2 33938  74.0446 201.2167 0016855 283.0907 195.3545 14.46803741884466"
      },
      "geometry": {
        "type": "Point",
        "coordinates": [
          -173.93561247215422,
          -40.56761426981191
        ]
      }
    }
  ]
}